[{"OBJECT_NAME":"SAUDISAT 5B","OBJECT_ID":"2018-102C","EPOCH":"2026-03-09T22:59:17.457216","MEAN_MOTION":15.27248504,"ECCENTRICITY":0.00120577,"INCLINATION":97.3281,"RA_OF_ASC_NODE":135.3629,"ARG_OF_PERICENTER":124.0958,"MEAN_ANOMALY":236.1427,"EPHEMERIS_TYPE":0,"CLASSIFICATION_TYPE":"U","NORAD_CAT_ID":43833,"ELEMENT_SET_NO":999,"REV_AT_EPOCH":40064,"BSTAR":0.00024926623,"MEAN_MOTION_DOT":6.596e-5,"MEAN_MOTION_DDOT":0},{"OBJECT_NAME":"STARLINK-31092","OBJECT_ID":"2023-203L","EPOCH":"2026-03-09T08:53:27.034656","MEAN_MOTION":15.27572454,"ECCENTRICITY":5.295e-5,"INCLINATION":42.9979,"RA_OF_ASC_NODE":68.796,"ARG_OF_PERICENTER":234.8552,"MEAN_ANOMALY":125.225,"EPHEMERIS_TYPE":0,"CLASSIFICATION_TYPE":"U","NORAD_CAT_ID":58628,"ELEMENT_SET_NO":999,"REV_AT_EPOCH":12351,"BSTAR":-9.667166e-6,"MEAN_MOTION_DOT":-5.28e-6,"MEAN_MOTION_DDOT":0}]
